start=new Date('2022-10-21T00:00:00.000Z').valueOf();
sats=[{"MEAN_MOTION_DOT":"0.00000942","INCLINATION":"53.0532","MEAN_MOTION_DDOT":"0.0000000000000","MEAN_MOTION":"15.06400478","ELEMENT_SET_NO":"999","APOAPSIS":"548.061","PERIAPSIS":"546.363","GP_ID":"215723488","CENTER_NAME":"EARTH","FILE":"3626396","SITE":"AFETR","OBJECT_TYPE":"PAYLOAD","TLE_LINE1":"1 46783U 20074AW  22293.85880310  .00000942  00000-0  82108-4 0  9990","SEMIMAJOR_AXIS":"6925.347","ARG_OF_PERICENTER":"87.8815","EPOCH":"2022-10-20T20:36:40.587840","RCS_SIZE":"LARGE","REF_FRAME":"TEME","RA_OF_ASC_NODE":"99.4838","CLASSIFICATION_TYPE":"U","NORAD_CAT_ID":"46783","TLE_LINE2":"2 46783  53.0532  99.4838 0001226  87.8815 272.2314 15.06400478110544","MEAN_ANOMALY":"272.2314","OBJECT_ID":"2020-074AW","ECCENTRICITY":"0.00012260","REV_AT_EPOCH":"11054","EPHEMERIS_TYPE":"0","BSTAR":"0.00008210800000","MEAN_ELEMENT_THEORY":"SGP4","PERIOD":"95.592","DECAY_DATE":null,"OBJECT_NAME":"STARLINK-1851","TIME_SYSTEM":"UTC","LAUNCH_DATE":"2020-10-24","COUNTRY_CODE":"US"},{"COUNTRY_CODE":"US","TIME_SYSTEM":"UTC","LAUNCH_DATE":"2020-10-24","BSTAR":"0.00010005000000","EPHEMERIS_TYPE":"0","PERIOD":"95.592","MEAN_ELEMENT_THEORY":"SGP4","DECAY_DATE":null,"OBJECT_NAME":"STARLINK-1882","OBJECT_ID":"2020-074AX","ECCENTRICITY":"0.00013590","REV_AT_EPOCH":"11054","TLE_LINE2":"2 46784  53.0548  99.4431 0001359  99.9831 260.1312 15.06402348110542","NORAD_CAT_ID":"46784","MEAN_ANOMALY":"260.1312","REF_FRAME":"TEME","RCS_SIZE":"LARGE","CLASSIFICATION_TYPE":"U","RA_OF_ASC_NODE":"99.4431","SEMIMAJOR_AXIS":"6925.341","ARG_OF_PERICENTER":"99.9831","EPOCH":"2022-10-20T20:40:37.340256","FILE":"3626396","SITE":"AFETR","OBJECT_TYPE":"PAYLOAD","TLE_LINE1":"1 46784U 20074AX  22293.86154329  .00001209  00000-0  10005-3 0  9999","CENTER_NAME":"EARTH","GP_ID":"215724238","PERIAPSIS":"546.265","APOAPSIS":"548.148","ELEMENT_SET_NO":"999","MEAN_MOTION":"15.06402348","INCLINATION":"53.0548","MEAN_MOTION_DDOT":"0.0000000000000","MEAN_MOTION_DOT":"0.00001209"},{"MEAN_MOTION_DOT":"0.00000547","MEAN_MOTION_DDOT":"0.0000000000000","INCLINATION":"53.0544","MEAN_MOTION":"15.06398446","ELEMENT_SET_NO":"999","APOAPSIS":"548.080","PERIAPSIS":"546.357","CENTER_NAME":"EARTH","GP_ID":"215724489","FILE":"3626396","SITE":"AFETR","OBJECT_TYPE":"PAYLOAD","TLE_LINE1":"1 46785U 20074AY  22293.84774669  .00000547  00000-0  55584-4 0  9999","SEMIMAJOR_AXIS":"6925.353","EPOCH":"2022-10-20T20:20:45.314016","ARG_OF_PERICENTER":"109.4327","REF_FRAME":"TEME","RCS_SIZE":"LARGE","RA_OF_ASC_NODE":"99.5245","CLASSIFICATION_TYPE":"U","TLE_LINE2":"2 46785  53.0544  99.5245 0001244 109.4327 250.6796 15.06398446110546","NORAD_CAT_ID":"46785","MEAN_ANOMALY":"250.6796","OBJECT_ID":"2020-074AY","ECCENTRICITY":"0.00012440","REV_AT_EPOCH":"11054","EPHEMERIS_TYPE":"0","BSTAR":"0.00005558400000","PERIOD":"95.592","MEAN_ELEMENT_THEORY":"SGP4","DECAY_DATE":null,"OBJECT_NAME":"STARLINK-1883","TIME_SYSTEM":"UTC","LAUNCH_DATE":"2020-10-24","COUNTRY_CODE":"US"},{"FILE":"3626396","SITE":"AFETR","OBJECT_TYPE":"PAYLOAD","TLE_LINE1":"1 46786U 20074AZ  22293.56208695  .00003034  00000-0  22246-3 0  9992","GP_ID":"215723470","CENTER_NAME":"EARTH","PERIAPSIS":"546.379","APOAPSIS":"548.025","ELEMENT_SET_NO":"999","MEAN_MOTION":"15.06403768","INCLINATION":"53.0536","MEAN_MOTION_DDOT":"0.0000000000000","MEAN_MOTION_DOT":"0.00003034","COUNTRY_CODE":"US","TIME_SYSTEM":"UTC","LAUNCH_DATE":"2020-10-24","EPHEMERIS_TYPE":"0","BSTAR":"0.00022246000000","PERIOD":"95.592","MEAN_ELEMENT_THEORY":"SGP4","DECAY_DATE":null,"OBJECT_NAME":"STARLINK-1893","OBJECT_ID":"2020-074AZ","ECCENTRICITY":"0.00011880","REV_AT_EPOCH":"11078","NORAD_CAT_ID":"46786","TLE_LINE2":"2 46786  53.0536  80.8211 0001188 106.3393 253.7726 15.06403768110787","MEAN_ANOMALY":"253.7726","RCS_SIZE":"LARGE","REF_FRAME":"TEME","RA_OF_ASC_NODE":"80.8211","CLASSIFICATION_TYPE":"U","SEMIMAJOR_AXIS":"6925.337","EPOCH":"2022-10-20T13:29:24.312480","ARG_OF_PERICENTER":"106.3393"},{"ELEMENT_SET_NO":"999","MEAN_MOTION":"15.06402270","MEAN_MOTION_DDOT":"0.0000000000000","INCLINATION":"53.0562","MEAN_MOTION_DOT":"-0.00000269","OBJECT_TYPE":"PAYLOAD","TLE_LINE1":"1 46787U 20074BA  22293.82009936 -.00000269  00000-0  86037-6 0  9998","FILE":"3626396","SITE":"AFETR","GP_ID":"215723988","CENTER_NAME":"EARTH","APOAPSIS":"548.080","PERIAPSIS":"546.333","ECCENTRICITY":"0.00012610","REV_AT_EPOCH":"11082","OBJECT_ID":"2020-074BA","NORAD_CAT_ID":"46787","TLE_LINE2":"2 46787  53.0562  79.6523 0001261 104.8427 255.2702 15.06402270110825","MEAN_ANOMALY":"255.2702","CLASSIFICATION_TYPE":"U","RA_OF_ASC_NODE":"79.6523","REF_FRAME":"TEME","RCS_SIZE":"LARGE","EPOCH":"2022-10-20T19:40:56.584704","ARG_OF_PERICENTER":"104.8427","SEMIMAJOR_AXIS":"6925.342","COUNTRY_CODE":"US","TIME_SYSTEM":"UTC","LAUNCH_DATE":"2020-10-24","MEAN_ELEMENT_THEORY":"SGP4","PERIOD":"95.592","DECAY_DATE":null,"OBJECT_NAME":"STARLINK-1899","EPHEMERIS_TYPE":"0","BSTAR":"0.00000086037000"},{"COUNTRY_CODE":"US","PERIOD":"95.593","MEAN_ELEMENT_THEORY":"SGP4","DECAY_DATE":null,"OBJECT_NAME":"STARLINK-1929","BSTAR":"0.00001393700000","EPHEMERIS_TYPE":"0","TIME_SYSTEM":"UTC","LAUNCH_DATE":"2020-10-24","NORAD_CAT_ID":"46788","TLE_LINE2":"2 46788  53.0539  79.6816 0001451  85.0596 275.0559 15.06393729110821","MEAN_ANOMALY":"275.0559","ECCENTRICITY":"0.00014510","REV_AT_EPOCH":"11082","OBJECT_ID":"2020-074BB","EPOCH":"2022-10-20T19:30:20.054304","ARG_OF_PERICENTER":"85.0596","SEMIMAJOR_AXIS":"6925.368","RA_OF_ASC_NODE":"79.6816","CLASSIFICATION_TYPE":"U","RCS_SIZE":"LARGE","REF_FRAME":"TEME","GP_ID":"215723739","CENTER_NAME":"EARTH","OBJECT_TYPE":"PAYLOAD","TLE_LINE1":"1 46788U 20074BB  22293.81273211 -.00000074  00000-0  13937-4 0  9998","FILE":"3626396","SITE":"AFETR","APOAPSIS":"548.238","PERIAPSIS":"546.228","MEAN_MOTION":"15.06393729","ELEMENT_SET_NO":"999","MEAN_MOTION_DOT":"-0.00000074","MEAN_MOTION_DDOT":"0.0000000000000","INCLINATION":"53.0539"},{"CLASSIFICATION_TYPE":"U","RA_OF_ASC_NODE":"110.0506","RCS_SIZE":"LARGE","REF_FRAME":"TEME","EPOCH":"2022-10-20T18:27:59.831136","ARG_OF_PERICENTER":"81.9793","SEMIMAJOR_AXIS":"6925.374","REV_AT_EPOCH":"11039","ECCENTRICITY":"0.00013230","OBJECT_ID":"2020-074BC","MEAN_ANOMALY":"278.1346","NORAD_CAT_ID":"46789","TLE_LINE2":"2 46789  53.0545 110.0506 0001323  81.9793 278.1346 15.06391559110396","LAUNCH_DATE":"2020-10-24","TIME_SYSTEM":"UTC","DECAY_DATE":null,"OBJECT_NAME":"STARLINK-1930","MEAN_ELEMENT_THEORY":"SGP4","PERIOD":"95.593","EPHEMERIS_TYPE":"0","BSTAR":"0.00009441000000","COUNTRY_CODE":"US","INCLINATION":"53.0545","MEAN_MOTION_DDOT":"0.0000000000000","MEAN_MOTION_DOT":"0.00001125","ELEMENT_SET_NO":"999","MEAN_MOTION":"15.06391559","PERIAPSIS":"546.323","APOAPSIS":"548.156","OBJECT_TYPE":"PAYLOAD","TLE_LINE1":"1 46789U 20074BC  22293.76944249  .00001125  00000-0  94410-4 0  9991","SITE":"AFETR","FILE":"3626396","GP_ID":"215724989","CENTER_NAME":"EARTH"},{"PERIAPSIS":"546.319","APOAPSIS":"548.130","CENTER_NAME":"EARTH","GP_ID":"215723970","SITE":"AFETR","FILE":"3626396","TLE_LINE1":"1 46790U 20074BD  22293.79890648  .00002014  00000-0  15409-3 0  9997","OBJECT_TYPE":"PAYLOAD","MEAN_MOTION_DOT":"0.00002014","INCLINATION":"53.0534","MEAN_MOTION_DDOT":"0.0000000000000","MEAN_MOTION":"15.06396443","ELEMENT_SET_NO":"999","EPHEMERIS_TYPE":"0","BSTAR":"0.00015409000000","DECAY_DATE":null,"OBJECT_NAME":"STARLINK-1931","PERIOD":"95.592","MEAN_ELEMENT_THEORY":"SGP4","LAUNCH_DATE":"2020-10-24","TIME_SYSTEM":"UTC","COUNTRY_CODE":"US","SEMIMAJOR_AXIS":"6925.359","EPOCH":"2022-10-20T19:10:25.519872","ARG_OF_PERICENTER":"112.0032","RCS_SIZE":"LARGE","REF_FRAME":"TEME","RA_OF_ASC_NODE":"109.7531","CLASSIFICATION_TYPE":"U","MEAN_ANOMALY":"248.1096","TLE_LINE2":"2 46790  53.0534 109.7531 0001307 112.0032 248.1096 15.06396443110399","NORAD_CAT_ID":"46790","OBJECT_ID":"2020-074BD","REV_AT_EPOCH":"11039","ECCENTRICITY":"0.00013070"},{"COUNTRY_CODE":"US","TIME_SYSTEM":"UTC","LAUNCH_DATE":"2020-10-24","MEAN_ELEMENT_THEORY":"SGP4","PERIOD":"95.593","DECAY_DATE":null,"OBJECT_NAME":"STARLINK-1933","EPHEMERIS_TYPE":"0","BSTAR":"0.00033438000000","ECCENTRICITY":"0.00014880","REV_AT_EPOCH":"11041","OBJECT_ID":"2020-074BE","NORAD_CAT_ID":"46791","TLE_LINE2":"2 46791  53.0538 109.3894 0001488 104.7579 255.3575 15.06385486110416","MEAN_ANOMALY":"255.3575","RA_OF_ASC_NODE":"109.3894","CLASSIFICATION_TYPE":"U","REF_FRAME":"TEME","RCS_SIZE":"LARGE","ARG_OF_PERICENTER":"104.7579","EPOCH":"2022-10-20T21:07:12.794016","SEMIMAJOR_AXIS":"6925.393","TLE_LINE1":"1 46791U 20074BE  22293.88000919  .00004701  00000-0  33438-3 0  9999","OBJECT_TYPE":"PAYLOAD","FILE":"3626396","SITE":"AFETR","GP_ID":"215723489","CENTER_NAME":"EARTH","PERIAPSIS":"546.228","APOAPSIS":"548.289","ELEMENT_SET_NO":"999","MEAN_MOTION":"15.06385486","MEAN_MOTION_DDOT":"0.0000000000000","INCLINATION":"53.0538","MEAN_MOTION_DOT":"0.00004701"},{"MEAN_ANOMALY":"258.6992","NORAD_CAT_ID":"46792","TLE_LINE2":"2 46792  53.0563 101.0558 0001431 101.4158 258.6992 15.06421021110499","OBJECT_ID":"2020-074BF","REV_AT_EPOCH":"11049","ECCENTRICITY":"0.00014310","SEMIMAJOR_AXIS":"6925.284","EPOCH":"2022-10-20T12:12:26.291232","ARG_OF_PERICENTER":"101.4158","REF_FRAME":"TEME","RCS_SIZE":"LARGE","CLASSIFICATION_TYPE":"U","RA_OF_ASC_NODE":"101.0558","COUNTRY_CODE":"US","BSTAR":"-0.00016265000000","EPHEMERIS_TYPE":"0","DECAY_DATE":null,"OBJECT_NAME":"STARLINK-1934","PERIOD":"95.591","MEAN_ELEMENT_THEORY":"SGP4","LAUNCH_DATE":"2020-10-24","TIME_SYSTEM":"UTC","MEAN_MOTION":"15.06421021","ELEMENT_SET_NO":"999","MEAN_MOTION_DOT":"-0.00002705","INCLINATION":"53.0563","MEAN_MOTION_DDOT":"0.0000000000000","CENTER_NAME":"EARTH","GP_ID":"215688246","SITE":"AFETR","FILE":"3625892","OBJECT_TYPE":"PAYLOAD","TLE_LINE1":"1 46792U 20074BF  22293.50863763 -.00002705  00000-0 -16265-3 0  9996","APOAPSIS":"548.140","PERIAPSIS":"546.158"}];
